{
  "type": "FeatureCollection",
  "features": [
    {
      "type": "Feature",
      "properties": {
        "norad_id": 66369,
        "name": "STARLINK-35795",
        "group": "last-30-days",
        "lat": -26.281647374829674,
        "lon": -58.000806967522394,
        "alt_km": 350.78296663034234,
        "timestamp": "2025-12-02T21:34:00.041076+00:00",
        "meta_object_name": "STARLINK-35795",
        "meta_object_id": "2025-254X",
        "meta_epoch": "2025-12-02T11:02:37.266720",
        "meta_mean_motion": 15.74234838,
        "meta_eccentricity": 0.00012,
        "meta_inclination": 53.1571,
        "meta_ra_of_asc_node": 325.9091,
        "meta_arg_of_pericenter": 115.0326,
        "meta_mean_anomaly": 245.0818,
        "meta_ephemeris_type": 0,
        "meta_classification_type": "U",
        "meta_norad_cat_id": 66369,
        "meta_element_set_no": 999,
        "meta_rev_at_epoch": 406,
        "meta_bstar": 0.00083807,
        "meta_mean_motion_dot": 0.00124177,
        "meta_mean_motion_ddot": 0,
        "tle_line1": "1 66369U 25254X   25336.46015355  .00124177  00000+0  83807-3 0  9996",
        "tle_line2": "2 66369  53.1571 325.9091 0001200 115.0326 245.0818 15.74234838  4067"
      },
      "geometry": {
        "type": "Point",
        "coordinates": [
          -58.000806967522394,
          -26.281647374829674
        ]
      }
    },
    {
      "type": "Feature",
      "properties": {
        "norad_id": 66370,
        "name": "STARLINK-35824",
        "group": "last-30-days",
        "lat": -23.367945167170653,
        "lon": -55.179037035268216,
        "alt_km": 350.48124569389074,
        "timestamp": "2025-12-02T21:34:00.041086+00:00",
        "meta_object_name": "STARLINK-35824",
        "meta_object_id": "2025-254Y",
        "meta_epoch": "2025-12-02T11:01:38.991648",
        "meta_mean_motion": 15.74251859,
        "meta_eccentricity": 0.0001645,
        "meta_inclination": 53.1569,
        "meta_ra_of_asc_node": 325.905,
        "meta_arg_of_pericenter": 104.7981,
        "meta_mean_anomaly": 255.3221,
        "meta_ephemeris_type": 0,
        "meta_classification_type": "U",
        "meta_norad_cat_id": 66370,
        "meta_element_set_no": 999,
        "meta_rev_at_epoch": 406,
        "meta_bstar": 0.0011821,
        "meta_mean_motion_dot": 0.00176643,
        "meta_mean_motion_ddot": 0,
        "tle_line1": "1 66370U 25254Y   25336.45947907  .00176643  00000+0  11821-2 0  9995",
        "tle_line2": "2 66370  53.1569 325.9050 0001645 104.7981 255.3221 15.74251859  4060"
      },
      "geometry": {
        "type": "Point",
        "coordinates": [
          -55.179037035268216,
          -23.367945167170653
        ]
      }
    },
    {
      "type": "Feature",
      "properties": {
        "norad_id": 66371,
        "name": "STARLINK-35804",
        "group": "last-30-days",
        "lat": -20.489586666047973,
        "lon": -52.55524923860015,
        "alt_km": 349.8104998017661,
        "timestamp": "2025-12-02T21:34:00.041096+00:00",
        "meta_object_name": "STARLINK-35804",
        "meta_object_id": "2025-254Z",
        "meta_epoch": "2025-12-02T12:32:05.989056",
        "meta_mean_motion": 15.74245989,
        "meta_eccentricity": 0.0001241,
        "meta_inclination": 53.1569,
        "meta_ra_of_asc_node": 325.5848,
        "meta_arg_of_pericenter": 84.3497,
        "meta_mean_anomaly": 275.7664,
        "meta_ephemeris_type": 0,
        "meta_classification_type": "U",
        "meta_norad_cat_id": 66371,
        "meta_element_set_no": 999,
        "meta_rev_at_epoch": 407,
        "meta_bstar": 0.0012598,
        "meta_mean_motion_dot": 0.00188518,
        "meta_mean_motion_ddot": 0,
        "tle_line1": "1 66371U 25254Z   25336.52229154  .00188518  00000+0  12598-2 0  9997",
        "tle_line2": "2 66371  53.1569 325.5848 0001241  84.3497 275.7664 15.74245989  4074"
      },
      "geometry": {
        "type": "Point",
        "coordinates": [
          -52.55524923860015,
          -20.489586666047973
        ]
      }
    },
    {
      "type": "Feature",
      "properties": {
        "norad_id": 66372,
        "name": "STARLINK-35821",
        "group": "last-30-days",
        "lat": -21.89576275195373,
        "lon": -53.81802681318513,
        "alt_km": 350.23500008859264,
        "timestamp": "2025-12-02T21:34:00.041108+00:00",
        "meta_object_name": "STARLINK-35821",
        "meta_object_id": "2025-254AA",
        "meta_epoch": "2025-12-02T11:01:09.721056",
        "meta_mean_motion": 15.74257341,
        "meta_eccentricity": 0.0001544,
        "meta_inclination": 53.1571,
        "meta_ra_of_asc_node": 325.9033,
        "meta_arg_of_pericenter": 104.4391,
        "meta_mean_anomaly": 255.6801,
        "meta_ephemeris_type": 0,
        "meta_classification_type": "U",
        "meta_norad_cat_id": 66372,
        "meta_element_set_no": 999,
        "meta_rev_at_epoch": 406,
        "meta_bstar": 0.0012748,
        "meta_mean_motion_dot": 0.00190917,
        "meta_mean_motion_ddot": 0,
        "tle_line1": "1 66372U 25254AA  25336.45914029  .00190917  00000+0  12748-2 0  9995",
        "tle_line2": "2 66372  53.1571 325.9033 0001544 104.4391 255.6801 15.74257341  4065"
      },
      "geometry": {
        "type": "Point",
        "coordinates": [
          -53.81802681318513,
          -21.89576275195373
        ]
      }
    },
    {
      "type": "Feature",
      "properties": {
        "norad_id": 66373,
        "name": "STARLINK-35809",
        "group": "last-30-days",
        "lat": -18.877717021152243,
        "lon": -51.14419798410008,
        "alt_km": 349.64503184195655,
        "timestamp": "2025-12-02T21:34:00.041119+00:00",
        "meta_object_name": "STARLINK-35809",
        "meta_object_id": "2025-254AB",
        "meta_epoch": "2025-12-02T11:00:11.073600",
        "meta_mean_motion": 15.74285317,
        "meta_eccentricity": 0.0001241,
        "meta_inclination": 53.1569,
        "meta_ra_of_asc_node": 325.8977,
        "meta_arg_of_pericenter": 110.6055,
        "meta_mean_anomaly": 249.5098,
        "meta_ephemeris_type": 0,
        "meta_classification_type": "U",
        "meta_norad_cat_id": 66373,
        "meta_element_set_no": 999,
        "meta_rev_at_epoch": 406,
        "meta_bstar": 0.0016398,
        "meta_mean_motion_dot": 0.00247746,
        "meta_mean_motion_ddot": 0,
        "tle_line1": "1 66373U 25254AB  25336.45846150  .00247746  00000+0  16398-2 0  9993",
        "tle_line2": "2 66373  53.1569 325.8977 0001241 110.6055 249.5098 15.74285317  4063"
      },
      "geometry": {
        "type": "Point",
        "coordinates": [
          -51.14419798410008,
          -18.877717021152243
        ]
      }
    },
    {
      "type": "Feature",
      "properties": {
        "norad_id": 66374,
        "name": "STARLINK-35831",
        "group": "last-30-days",
        "lat": -17.462662903921384,
        "lon": -49.93521527853093,
        "alt_km": 349.28637214432365,
        "timestamp": "2025-12-02T21:34:00.041129+00:00",
        "meta_object_name": "STARLINK-35831",
        "meta_object_id": "2025-254AC",
        "meta_epoch": "2025-12-02T10:59:42.040608",
        "meta_mean_motion": 15.74262747,
        "meta_eccentricity": 0.0001554,
        "meta_inclination": 53.157,
        "meta_ra_of_asc_node": 325.8954,
        "meta_arg_of_pericenter": 75.6511,
        "meta_mean_anomaly": 284.4681,
        "meta_ephemeris_type": 0,
        "meta_classification_type": "U",
        "meta_norad_cat_id": 66374,
        "meta_element_set_no": 999,
        "meta_rev_at_epoch": 406,
        "meta_bstar": 0.0012531,
        "meta_mean_motion_dot": 0.00187629,
        "meta_mean_motion_ddot": 0,
        "tle_line1": "1 66374U 25254AC  25336.45812547  .00187629  00000+0  12531-2 0  9995",
        "tle_line2": "2 66374  53.1570 325.8954 0001554  75.6511 284.4681 15.74262747  4063"
      },
      "geometry": {
        "type": "Point",
        "coordinates": [
          -49.93521527853093,
          -17.462662903921384
        ]
      }
    },
    {
      "type": "Feature",
      "properties": {
        "norad_id": 66375,
        "name": "STARLINK-35826",
        "group": "last-30-days",
        "lat": -15.932457396083441,
        "lon": -48.65598479531167,
        "alt_km": 349.6023954561033,
        "timestamp": "2025-12-02T21:34:00.041140+00:00",
        "meta_object_name": "STARLINK-35826",
        "meta_object_id": "2025-254AD",
        "meta_epoch": "2025-12-02T10:59:12.712992",
        "meta_mean_motion": 15.7427346,
        "meta_eccentricity": 0.0001397,
        "meta_inclination": 53.1567,
        "meta_ra_of_asc_node": 325.8929,
        "meta_arg_of_pericenter": 117.7092,
        "meta_mean_anomaly": 242.407,
        "meta_ephemeris_type": 0,
        "meta_classification_type": "U",
        "meta_norad_cat_id": 66375,
        "meta_element_set_no": 999,
        "meta_rev_at_epoch": 406,
        "meta_bstar": 0.0014219,
        "meta_mean_motion_dot": 0.00213757,
        "meta_mean_motion_ddot": 0,
        "tle_line1": "1 66375U 25254AD  25336.45778603  .00213757  00000+0  14219-2 0  9997",
        "tle_line2": "2 66375  53.1567 325.8929 0001397 117.7092 242.4070 15.74273460  4069"
      },
      "geometry": {
        "type": "Point",
        "coordinates": [
          -48.65598479531167,
          -15.932457396083441
        ]
      }
    }
  ]
}